0 THORAD AGENA D DEB
1 04155U 69082X   13281.65844637  .00000682  00000-0  28337-3 0  3668
2 04155 070.0489 115.9469 0061610 167.8753 257.0647 14.29458330276286
0 THORAD AGENA D DEB
1 04155U 69082X   13284.52103550  .00000798  00000-0  32785-3 0  3670
2 04155 070.0487 109.4944 0061370 163.8506 228.1801 14.29464875276692
0 THORAD AGENA D DEB
1 04155U 69082X   13286.63821346  .00000794  00000-0  32653-3 0  3685
2 04155 070.0490 104.7215 0061283 160.8904 323.3770 14.29469265276991
0 THORAD AGENA D DEB
1 04155U 69082X   13288.86673848  .00001176  00000-0  47305-3 0  3690
2 04155 070.0494 099.6981 0061115 157.7641 271.6235 14.29474409277318
0 THORAD AGENA D DEB
1 04155U 69082X   13290.90659597  .00001062  00000-0  42903-3 0  3708
2 04155 070.0499 095.1001 0060979 154.9661 328.9331 14.29479330277608
0 THORAD AGENA D DEB
1 04155U 69082X   13293.48459122  .00001260  00000-0  50518-3 0  3718
2 04155 070.0503 089.2889 0060761 151.3265 275.7102 14.29485568277977
0 THORAD AGENA D DEB
1 04155U 69082X   13295.51368784  .00001487  00000-0  59216-3 0  3723
2 04155 070.0503 084.7151 0060634 148.3362 277.9411 14.29491753278265
